[{"OBJECT_NAME":"STARLINK-30494","OBJECT_ID":"2023-151G","EPOCH":"2026-03-09T08:39:06.366240","MEAN_MOTION":15.28417441,"ECCENTRICITY":0.00011553,"INCLINATION":43.0027,"RA_OF_ASC_NODE":192.4566,"ARG_OF_PERICENTER":241.5536,"MEAN_ANOMALY":118.52,"EPHEMERIS_TYPE":0,"CLASSIFICATION_TYPE":"U","NORAD_CAT_ID":57970,"ELEMENT_SET_NO":999,"REV_AT_EPOCH":13740,"BSTAR":-3.569111e-5,"MEAN_MOTION_DOT":-1.272e-5,"MEAN_MOTION_DDOT":0},{"OBJECT_NAME":"STARLINK-34509","OBJECT_ID":"2025-133N","EPOCH":"2026-03-09T13:16:13.960704","MEAN_MOTION":15.30223113,"ECCENTRICITY":0.0001236,"INCLINATION":53.1577,"RA_OF_ASC_NODE":117.7025,"ARG_OF_PERICENTER":92.0549,"MEAN_ANOMALY":268.0593,"EPHEMERIS_TYPE":0,"CLASSIFICATION_TYPE":"U","NORAD_CAT_ID":64484,"ELEMENT_SET_NO":999,"REV_AT_EPOCH":4116,"BSTAR":0.00079704,"MEAN_MOTION_DOT":0.00023338,"MEAN_MOTION_DDOT":0}]
