STARLINK-30494          
1 57970U 23151G   26068.36049035 -.00001272  00000+0 -35691-4 0  9993
2 57970  43.0027 192.4566 0001155 241.5536 118.5200 15.28417441137406
STARLINK-34509          
1 64484U 25133N   26068.55293936  .00023338  00000+0  79704-3 0  9992
2 64484  53.1577 117.7025 0001236  92.0549 268.0593 15.30223113 41166
